NORAD_CAT_ID,OBJECT_NAME,OBJECT_TYPE,EPOCH,MEAN_MOTION,ECCENTRICITY,INCLINATION,RA_OF_ASC_NODE,ARG_OF_PERICENTER,MEAN_ANOMALY,BSTAR,MEAN_MOTION_DOT,MEAN_MOTION_DDOT,TLE_LINE0,TLE_LINE1,TLE_LINE2,SEMIMAJOR_AXIS,PERIOD,APOGEE,PERIGEE,DECAYED
53981.0,STARLINK-5149,PAYLOAD,2022-11-05 04:00:00,15.73174353,0.0002708,53.2199,302.082,20.9731,228.1531,-0.0007903,-0.00110001,0.0,0 STARLINK-5149,1 53981U 22125T   22309.16667824 -.00110001  00000-0 -79030-3 0  9991,2 53981  53.2199 302.0820 0002708  20.9731 228.1531 15.73174353  5142,6727.968000000003,91.535,351.655,348.011,0.0
53981.0,STARLINK-5149,PAYLOAD,2022-11-05 12:00:00,15.72861399,0.0002976,53.2177,300.4316,28.8538,309.1814,0.00348,0.00511256,0.0,0 STARLINK-5149,1 53981U 22125T   22309.50001157  .00511256  00000-0  34800-2 0  9990,2 53981  53.2177 300.4316 0002976  28.8538 309.1814 15.72861399  5190,6728.861,91.553,352.728,348.723,0.0
53981.0,STARLINK-5149,PAYLOAD,2022-11-05 14:00:01,15.73012416,0.0002933,53.2174,300.0185,30.196,60.0301,0.0021653,0.00312338,0.0,0 STARLINK-5149,1 53981U 22125T   22309.58335648  .00312338  00000-0  21653-2 0  9995,2 53981  53.2174 300.0185 0002933  30.1960  60.0301 15.73012416  1307,6728.43,91.544,352.26800000000014,348.32199999999995,0.0
53981.0,STARLINK-5149,PAYLOAD,2022-11-05 20:00:01,15.73202718,0.00028,53.2173,298.7797,29.2431,37.5238,1.7990999999999998e-05,1.904e-05,0.0,0 STARLINK-5149,1 53981U 22125T   22309.83334491  .00001904  00000-0  17991-4 0  9994,2 53981  53.2173 298.7797 0002800  29.2431  37.5238 15.73202718  5255,6727.887,91.533,351.636,347.869,0.0
53981.0,STARLINK-5149,PAYLOAD,2022-11-05 22:00:01,15.73109443,0.000246,53.2194,298.3697,20.1012,158.9888,0.00090025,0.00127167,0.0,0 STARLINK-5149,1 53981U 22125T   22309.91668981  .00127167  00000-0  90025-3 0  9995,2 53981  53.2194 298.3697 0002460  20.1012 158.9888 15.73109443  1302,6728.153,91.538,351.673,348.36300000000006,0.0
53981.0,STARLINK-5149,PAYLOAD,2022-11-06 14:00:01,15.7326863,0.0002626,53.2194,295.0725,17.2104,339.597,-0.00049508,-0.00069747,0.0,0 STARLINK-5149,1 53981U 22125T   22310.58334491 -.00069747  00000-0 -49508-3 0  9997,2 53981  53.2194 295.0725 0002626  17.2104 339.5970 15.73268630  1304,6727.7,91.529,351.331,347.798,0.0
53981.0,STARLINK-5149,PAYLOAD,2022-11-07 06:00:00,15.731952599999998,0.0002709,53.2198,291.7737,20.9861,153.7723,-4.9065e-05,-7.502e-05,0.0,0 STARLINK-5149,1 53981U 22125T   22311.25001157 -.00007502  00000-0 -49065-4 0  9992,2 53981  53.2198 291.7737 0002709  20.9861 153.7723 15.73195260  5479,6727.909000000002,91.533,351.596,347.951,0.0
53981.0,STARLINK-5149,PAYLOAD,2022-11-07 22:00:00,15.73199842,0.0002334,53.2198,288.4729,17.6676,334.9353,0.00052136,0.00073193,0.0,0 STARLINK-5149,1 53981U 22125T   22311.91667824  .00073193  00000-0  52136-3 0  9993,2 53981  53.2198 288.4729 0002334  17.6676 334.9353 15.73199842  5577,6727.896,91.533,351.331,348.19,0.0
53981.0,STARLINK-5149,PAYLOAD,2022-11-08 06:00:00,15.73259445,0.000249,53.2196,286.8255,15.3811,66.2326,0.00018954,0.00026132,0.0,0 STARLINK-5149,1 53981U 22125T   22312.25001157  .00026132  00000-0  18954-3 0  9993,2 53981  53.2196 286.8255 0002490  15.3811  66.2326 15.73259445  5638,6727.726,91.53,351.266,347.915,0.0
53981.0,STARLINK-5149,PAYLOAD,2022-11-08 14:00:01,15.73281462,0.000249,53.2197,285.175,16.7805,153.8352,-1.1487e-05,-2.24e-05,0.0,0 STARLINK-5149,1 53981U 22125T   22312.58334491 -.00002240  00000-0 -11487-4 0  9990,2 53981  53.2197 285.1750 0002490  16.7805 153.8352 15.73281462  1305,6727.663000000001,91.528,351.20300000000015,347.853,0.0
53981.0,STARLINK-5149,PAYLOAD,2022-11-08 22:00:00,15.73321217,0.0002299,53.2201,283.5241,22.484,237.1447,-0.00062071,-0.00087298,0.0,0 STARLINK-5149,1 53981U 22125T   22312.91667824 -.00087298  00000-0 -62071-3 0  9996,2 53981  53.2201 283.5241 0002299  22.4840 237.1447 15.73321217  5733,6727.55,91.526,350.961,347.86800000000005,0.0
53981.0,STARLINK-5149,PAYLOAD,2022-11-09 12:00:00,15.73203448,0.0002494,53.2199,280.6391,14.8275,310.5487,-0.00096525,-0.00133998,0.0,0 STARLINK-5149,1 53981U 22125T   22313.50001157 -.00133998  00000-0 -96525-3 0  9993,2 53981  53.2199 280.6391 0002494  14.8275 310.5487 15.73203448  5822,6727.885,91.533,351.42800000000005,348.07199999999995,0.0
53981.0,STARLINK-5149,PAYLOAD,2022-11-09 14:00:01,15.73182217,0.0002397,53.22,280.2262,16.0536,61.5492,-0.00091863,-0.00127534,0.0,0 STARLINK-5149,1 53981U 22125T   22313.58334491 -.00127534  00000-0 -91863-3 0  9990,2 53981  53.2200 280.2262 0002397  16.0536  61.5492 15.73182217  1302,6727.946,91.534,351.4240000000001,348.1980000000001,0.0
53981.0,STARLINK-5149,PAYLOAD,2022-11-09 22:00:01,15.73059037,0.0002221,53.2201,278.5762,20.662,145.847,0.00060873,0.00085168,0.0,0 STARLINK-5149,1 53981U 22125T   22313.91668981  .00085168  00000-0  60873-3 0  9992,2 53981  53.2201 278.5762 0002221  20.6620 145.8470 15.73059037  1304,6728.297,91.541,351.656,348.668,0.0
53981.0,STARLINK-5149,PAYLOAD,2022-11-10 06:00:00,15.73126898,0.0002447,53.2199,276.9293,16.8959,238.3405,-7.540599999999999e-06,-1.676e-05,0.0,0 STARLINK-5149,1 53981U 22125T   22314.25001157 -.00001676  00000-0 -75406-5 0  9990,2 53981  53.2199 276.9293 0002447  16.8959 238.3405 15.73126898  5943,6728.104,91.537,351.615,348.32199999999995,0.0
53981.0,STARLINK-5149,PAYLOAD,2022-11-10 14:00:01,15.73112918,0.0002277,53.2199,275.2789,13.8567,330.22,0.00028621,0.0003959,0.0,0 STARLINK-5149,1 53981U 22125T   22314.58334491  .00039590  00000-0  28621-3 0  9995,2 53981  53.2199 275.2789 0002277  13.8567 330.2200 15.73112918  1307,6728.143,91.538,351.54,348.476,0.0
53981.0,STARLINK-5149,PAYLOAD,2022-11-10 20:00:01,15.73117716,0.0002151,53.22,274.0409,16.8957,303.8103,0.00082976,0.00117057,0.0,0 STARLINK-5149,1 53981U 22125T   22314.83334491  .00117057  00000-0  82976-3 0  9991,2 53981  53.2200 274.0409 0002151  16.8957 303.8103 15.73117716  6037,6728.13,91.538,351.44199999999995,348.548,0.0
53981.0,STARLINK-5149,PAYLOAD,2022-11-10 22:00:00,15.73150261,0.0002161,53.2203,273.6289,18.4516,54.4567,0.00059261,0.00083202,0.0,0 STARLINK-5149,1 53981U 22125T   22314.91667824  .00083202  00000-0  59261-3 0  9994,2 53981  53.2203 273.6289 0002161  18.4516  54.4567 15.73150261  1301,6728.0369999999975,91.536,351.356,348.4480000000001,0.0
53981.0,STARLINK-5149,PAYLOAD,2022-11-11 04:00:00,15.73193518,0.0002389,53.2202,272.3937,18.3783,31.2001,0.00038484,0.00053724,0.0,0 STARLINK-5149,1 53981U 22125T   22315.16667824  .00053724  00000-0  38484-3 0  9992,2 53981  53.2202 272.3937 0002389  18.3783  31.2001 15.73193518  6081,6727.9140000000025,91.534,351.386,348.171,0.0
53981.0,STARLINK-5149,PAYLOAD,2022-11-11 14:00:01,15.73256881,0.0002365,53.2201,270.331,21.8582,228.8969,-0.00032096,-0.00045539,0.0,0 STARLINK-5149,1 53981U 22125T   22315.58334491 -.00045539  00000-0 -32096-3 0  9999,2 53981  53.2201 270.3310 0002365  21.8582 228.8969 15.73256881  1303,6727.733,91.53,351.189,348.00699999999995,0.0
53981.0,STARLINK-5149,PAYLOAD,2022-11-11 20:00:01,15.73222382,0.0002199,53.2199,269.0932,25.7644,201.7275,0.00066696,0.00094133,0.0,0 STARLINK-5149,1 53981U 22125T   22315.83334491  .00094133  00000-0  66696-3 0  9992,2 53981  53.2199 269.0932 0002199  25.7644 201.7275 15.73222382  6192,6727.831,91.532,351.176,348.217,0.0
53981.0,STARLINK-5149,PAYLOAD,2022-11-11 22:00:00,15.73273869,0.0002212,53.22,268.6813,24.8921,314.831,5.3574e-05,6.927e-05,0.0,0 STARLINK-5149,1 53981U 22125T   22315.91667824  .00006927  00000-0  53574-4 0  9996,2 53981  53.2200 268.6813 0002212  24.8921 314.8310 15.73273869  1302,6727.685,91.529,351.038,348.061,0.0
53981.0,STARLINK-5149,PAYLOAD,2022-11-12 06:00:00,15.73252178,0.0002312,53.2198,267.0339,18.3751,50.3846,-7.8524e-05,-0.00011653,0.0,0 STARLINK-5149,1 53981U 22125T   22316.25001157 -.00011653  00000-0 -78524-4 0  9991,2 53981  53.2198 267.0339 0002312  18.3751  50.3846 15.73252178  6260,6727.746,91.53,351.167,348.056,0.0
53981.0,STARLINK-5149,PAYLOAD,2022-11-12 14:00:01,15.73264988,0.0002183,53.2197,265.3829,17.9664,139.7675,-0.00011343,-0.00016556,0.0,0 STARLINK-5149,1 53981U 22125T   22316.58334491 -.00016556  00000-0 -11343-3 0  9999,2 53981  53.2197 265.3829 0002183  17.9664 139.7675 15.73264988  1302,6727.71,91.529,351.0440000000001,348.106,0.0
53981.0,STARLINK-5149,PAYLOAD,2022-11-12 22:00:00,15.73272609,0.0002161,53.2199,263.733,26.2078,220.5232,-0.00063097,-0.00088532,0.0,0 STARLINK-5149,1 53981U 22125T   22316.91667824 -.00088532  00000-0 -63097-3 0  9991,2 53981  53.2199 263.7330 0002161  26.2078 220.5232 15.73272609  1308,6727.688,91.529,351.00699999999995,348.099,0.0
53981.0,STARLINK-5149,PAYLOAD,2022-11-13 04:00:01,15.73219092,0.0002383,53.2197,262.4976,25.0778,198.4576,-0.00070306,-0.00098243,0.0,0 STARLINK-5149,1 53981U 22125T   22317.16668981 -.00098243  00000-0 -70306-3 0  9995,2 53981  53.2197 262.4976 0002383  25.0778 198.4576 15.73219092  6405,6727.840999999999,91.532,351.309,348.102,0.0
53981.0,STARLINK-5149,PAYLOAD,2022-11-13 14:00:01,15.73132762,0.0002163,53.2196,260.4347,21.5846,43.0155,0.00029267,0.00040536,0.0,0 STARLINK-5149,1 53981U 22125T   22317.58334491  .00040536  00000-0  29267-3 0  9997,2 53981  53.2196 260.4347 0002163  21.5846  43.0155 15.73132762  6470,6728.087,91.537,351.407,348.497,0.0
53981.0,STARLINK-5149,PAYLOAD,2022-11-13 22:00:00,15.73157449,0.0002173,53.2195,258.7855,27.7821,125.6782,-8.3131e-05,-0.00012251,0.0,0 STARLINK-5149,1 53981U 22125T   22317.91667824 -.00012251  00000-0 -83131-4 0  9999,2 53981  53.2195 258.7855 0002173  27.7821 125.6782 15.73157449  1304,6728.016,91.536,351.343,348.4190000000001,0.0
53981.0,STARLINK-5149,PAYLOAD,2022-11-14 12:00:02,15.73203356,0.0002274,53.2188,255.8999,29.2791,189.772,0.00019286,0.00026537,0.0,0 STARLINK-5149,1 53981U 22125T   22318.50002315  .00026537  00000-0  19286-3 0  9992,2 53981  53.2188 255.8999 0002274  29.2791 189.7720 15.73203356  6619,6727.886,91.533,351.281,348.221,0.0
